{"type": "FeatureCollection", "features": [ {"type": "Feature", "properties": {"norad_id": 39620, "name": "COSMOS 2492 (754)", "group": "gnss", "lat": 65.05206573500635, "lon": 60.178409847417946, "alt_km": 19151.30421706917, "timestamp": "2025-12-21T14:40:48.159202+00:00", "meta": {"OBJECT_NAME": "COSMOS 2492 (754)", "OBJECT_ID": "2014-012A", "EPOCH": "2025-12-21T00:28:06.027744", "MEAN_MOTION": 2.13103414, "ECCENTRICITY": 0.00142344, "INCLINATION": 65.403, "RA_OF_ASC_NODE": 319.9894, "ARG_OF_PERICENTER": 312.8453, "MEAN_ANOMALY": 47.0277, "EPHEMERIS_TYPE": 0, "CLASSIFICATION_TYPE": "U", "NORAD_CAT_ID": 39620, "ELEMENT_SET_NO": 999, "REV_AT_EPOCH": 9144, "BSTAR": 0, "MEAN_MOTION_DOT": -4.8e-07, "MEAN_MOTION_DDOT": 0}, "tle": {"line1": "1 39620U 14012A   25355.01951421 -.00000048  00000+0  00000+0 0  9992", "line2": "2 39620  65.4030 319.9894 0014234 312.8453  47.0277  2.13103414 91447"}}, "geometry": {"type": "Point", "coordinates": [60.178409847417946, 65.05206573500635]}}, {"type": "Feature", "properties": {"norad_id": 39635, "name": "IRNSS-1B", "group": "gnss", "lat": 24.415646253903525, "lon": 9.39199002072433, "alt_km": 35830.48055540657, "timestamp": "2025-12-21T14:40:48.159214+00:00", "meta": {"OBJECT_NAME": "IRNSS-1B", "OBJECT_ID": "2014-017A", "EPOCH": "2025-12-20T18:37:43.503744", "MEAN_MOTION": 1.00271109, "ECCENTRICITY": 0.00186822, "INCLINATION": 29.2525, "RA_OF_ASC_NODE": 243.4669, "ARG_OF_PERICENTER": 249.4131, "MEAN_ANOMALY": 291.5281, "EPHEMERIS_TYPE": 0, "CLASSIFICATION_TYPE": "U", "NORAD_CAT_ID": 39635, "ELEMENT_SET_NO": 999, "REV_AT_EPOCH": 4300, "BSTAR": 0, "MEAN_MOTION_DOT": 1.52e-06, "MEAN_MOTION_DDOT": 0}, "tle": {"line1": "1 39635U 14017A   25354.77619796  .00000152  00000+0  00000+0 0  9996", "line2": "2 39635  29.2525 243.4669 0018682 249.4131 291.5281  1.00271109 43002"}}, "geometry": {"type": "Point", "coordinates": [9.39199002072433, 24.415646253903525]}}, {"type": "Feature", "properties": {"norad_id": 39727, "name": "LUCH 5V (SDCM/PRN 141)", "group": "gnss", "lat": -2.048192164759249, "lon": 45.438801206153215, "alt_km": 35793.270568998334, "timestamp": "2025-12-21T14:40:48.159226+00:00", "meta": {"OBJECT_NAME": "LUCH 5V (SDCM/PRN 141)", "OBJECT_ID": "2014-023A", "EPOCH": "2025-12-21T06:47:58.643232", "MEAN_MOTION": 1.00275952, "ECCENTRICITY": 0.0003701, "INCLINATION": 4.6903, "RA_OF_ASC_NODE": 71.4692, "ARG_OF_PERICENTER": 213.1317, "MEAN_ANOMALY": 2.1951, "EPHEMERIS_TYPE": 0, "CLASSIFICATION_TYPE": "U", "NORAD_CAT_ID": 39727, "ELEMENT_SET_NO": 999, "REV_AT_EPOCH": 4257, "BSTAR": 0, "MEAN_MOTION_DOT": -2.5e-06, "MEAN_MOTION_DDOT": 0}, "tle": {"line1": "1 39727U 14023A   25355.28331763 -.00000250  00000+0  00000+0 0  9997", "line2": "2 39727   4.6903  71.4692 0003701 213.1317   2.1951  1.00275952 42577"}}, "geometry": {"type": "Point", "coordinates": [45.438801206153215, -2.048192164759249]}}, {"type": "Feature", "properties": {"norad_id": 39741, "name": "GPS BIIF-6  (PRN 06)", "group": "gnss", "lat": 54.27676272920657, "lon": 91.78567957373764, "alt_km": 20261.07561472341, "timestamp": "2025-12-21T14:40:48.159237+00:00", "meta": {"OBJECT_NAME": "GPS BIIF-6  (PRN 06)", "OBJECT_ID": "2014-026A", "EPOCH": "2025-12-18T23:24:45.525888", "MEAN_MOTION": 2.00561009, "ECCENTRICITY": 0.00393411, "INCLINATION": 56.5812, "RA_OF_ASC_NODE": 338.5339, "ARG_OF_PERICENTER": 319.0443, "MEAN_ANOMALY": 40.6665, "EPHEMERIS_TYPE": 0, "CLASSIFICATION_TYPE": "U", "NORAD_CAT_ID": 39741, "ELEMENT_SET_NO": 999, "REV_AT_EPOCH": 8492, "BSTAR": 0, "MEAN_MOTION_DOT": -8.1e-07, "MEAN_MOTION_DDOT": 0}, "tle": {"line1": "1 39741U 14026A   25352.97552692 -.00000081  00000+0  00000+0 0  9997", "line2": "2 39741  56.5812 338.5339 0039341 319.0443  40.6665  2.00561009 84924"}}, "geometry": {"type": "Point", "coordinates": [91.78567957373764, 54.27676272920657]}}, {"type": "Feature", "properties": {"norad_id": 40001, "name": "COSMOS 2500 (755)", "group": "gnss", "lat": -33.76607800190188, "lon": -58.16456738371875, "alt_km": 19138.41500343427, "timestamp": "2025-12-21T14:40:48.159248+00:00", "meta": {"OBJECT_NAME": "COSMOS 2500 (755)", "OBJECT_ID": "2014-032A", "EPOCH": "2025-12-21T04:35:55.034016", "MEAN_MOTION": 2.13106226, "ECCENTRICITY": 0.00077382, "INCLINATION": 65.3386, "RA_OF_ASC_NODE": 319.7453, "ARG_OF_PERICENTER": 219.3399, "MEAN_ANOMALY": 140.5971, "EPHEMERIS_TYPE": 0, "CLASSIFICATION_TYPE": "U", "NORAD_CAT_ID": 40001, "ELEMENT_SET_NO": 999, "REV_AT_EPOCH": 8966, "BSTAR": 0, "MEAN_MOTION_DOT": -4.7e-07, "MEAN_MOTION_DDOT": 0}, "tle": {"line1": "1 40001U 14032A   25355.19160919 -.00000047  00000+0  00000+0 0  9991", "line2": "2 40001  65.3386 319.7453 0007738 219.3399 140.5971  2.13106226 89660"}}, "geometry": {"type": "Point", "coordinates": [-58.16456738371875, -33.76607800190188]}}, {"type": "Feature", "properties": {"norad_id": 40105, "name": "GPS BIIF-7  (PRN 09)", "group": "gnss", "lat": 32.300247144040924, "lon": 121.55203918465791, "alt_km": 20161.53825160778, "timestamp": "2025-12-21T14:40:48.159260+00:00", "meta": {"OBJECT_NAME": "GPS BIIF-7  (PRN 09)", "OBJECT_ID": "2014-045A", "EPOCH": "2025-12-18T01:34:21.644256", "MEAN_MOTION": 2.00572958, "ECCENTRICITY": 0.00325491, "INCLINATION": 55.2322, "RA_OF_ASC_NODE": 95.6864, "ARG_OF_PERICENTER": 120.0469, "MEAN_ANOMALY": 240.2601, "EPHEMERIS_TYPE": 0, "CLASSIFICATION_TYPE": "U", "NORAD_CAT_ID": 40105, "ELEMENT_SET_NO": 999, "REV_AT_EPOCH": 8244, "BSTAR": 0, "MEAN_MOTION_DOT": -3.8e-07, "MEAN_MOTION_DDOT": 0}, "tle": {"line1": "1 40105U 14045A   25352.06552829 -.00000038  00000+0  00000+0 0  9998", "line2": "2 40105  55.2322  95.6864 0032549 120.0469 240.2601  2.00572958 82445"}}, "geometry": {"type": "Point", "coordinates": [121.55203918465791, 32.300247144040924]}}, {"type": "Feature", "properties": {"norad_id": 40128, "name": "GSAT0201 (GALILEO 5)", "group": "gnss", "lat": 22.313270462950495, "lon": -58.47922788434917, "alt_km": 24931.746345439686, "timestamp": "2025-12-21T14:40:48.159271+00:00", "meta": {"OBJECT_NAME": "GSAT0201 (GALILEO 5)", "OBJECT_ID": "2014-050A", "EPOCH": "2025-12-21T00:18:08.005824", "MEAN_MOTION": 1.85519694, "ECCENTRICITY": 0.16487459, "INCLINATION": 49.0672, "RA_OF_ASC_NODE": 280.7264, "ARG_OF_PERICENTER": 172.5923, "MEAN_ANOMALY": 190.2386, "EPHEMERIS_TYPE": 0, "CLASSIFICATION_TYPE": "U", "NORAD_CAT_ID": 40128, "ELEMENT_SET_NO": 999, "REV_AT_EPOCH": 7501, "BSTAR": 0, "MEAN_MOTION_DOT": -4.1e-07, "MEAN_MOTION_DDOT": 0}, "tle": {"line1": "1 40128U 14050A   25355.01259266 -.00000041  00000+0  00000+0 0  9990", "line2": "2 40128  49.0672 280.7264 1648745 172.5923 190.2386  1.85519694 75018"}}, "geometry": {"type": "Point", "coordinates": [-58.47922788434917, 22.313270462950495]}}, {"type": "Feature", "properties": {"norad_id": 40129, "name": "GSAT0202 (GALILEO 6)", "group": "gnss", "lat": -45.006330224167385, "lon": 159.7883954131955, "alt_km": 19791.678981697107, "timestamp": "2025-12-21T14:40:48.159285+00:00", "meta": {"OBJECT_NAME": "GSAT0202 (GALILEO 6)", "OBJECT_ID": "2014-050B", "EPOCH": "2025-12-18T13:46:22.484640", "MEAN_MOTION": 1.85520466, "ECCENTRICITY": 0.16491259, "INCLINATION": 49.0858, "RA_OF_ASC_NODE": 279.9095, "ARG_OF_PERICENTER": 173.2442, "MEAN_ANOMALY": 189.3393, "EPHEMERIS_TYPE": 0, "CLASSIFICATION_TYPE": "U", "NORAD_CAT_ID": 40129, "ELEMENT_SET_NO": 999, "REV_AT_EPOCH": 7713, "BSTAR": 0, "MEAN_MOTION_DOT": -5.9e-07, "MEAN_MOTION_DDOT": 0}, "tle": {"line1": "1 40129U 14050B   25352.57387135 -.00000059  00000+0  00000+0 0  9995", "line2": "2 40129  49.0858 279.9095 1649125 173.2442 189.3393  1.85520466 77135"}}, "geometry": {"type": "Point", "coordinates": [159.7883954131955, -45.006330224167385]}}, {"type": "Feature", "properties": {"norad_id": 40269, "name": "IRNSS-1C", "group": "gnss", "lat": -5.186583014089751, "lon": 33.58515390248571, "alt_km": 35748.066530634766, "timestamp": "2025-12-21T14:40:48.159297+00:00", "meta": {"OBJECT_NAME": "IRNSS-1C", "OBJECT_ID": "2014-061A", "EPOCH": "2025-12-20T19:46:51.350880", "MEAN_MOTION": 1.00273926, "ECCENTRICITY": 0.00180622, "INCLINATION": 6.0622, "RA_OF_ASC_NODE": 92.4601, "ARG_OF_PERICENTER": 1.212, "MEAN_ANOMALY": 15.682, "EPHEMERIS_TYPE": 0, "CLASSIFICATION_TYPE": "U", "NORAD_CAT_ID": 40269, "ELEMENT_SET_NO": 999, "REV_AT_EPOCH": 4090, "BSTAR": 0, "MEAN_MOTION_DOT": -1.43e-06, "MEAN_MOTION_DDOT": 0}, "tle": {"line1": "1 40269U 14061A   25354.82420545 -.00000143  00000+0  00000+0 0  9999", "line2": "2 40269   6.0622  92.4601 0018062   1.2120  15.6820  1.00273926 40909"}}, "geometry": {"type": "Point", "coordinates": [33.58515390248571, -5.186583014089751]}}, {"type": "Feature", "properties": {"norad_id": 40294, "name": "GPS BIIF-8  (PRN 03)", "group": "gnss", "lat": 40.04961609504173, "lon": -175.45810292136935, "alt_km": 20097.37194428313, "timestamp": "2025-12-21T14:40:48.159309+00:00", "meta": {"OBJECT_NAME": "GPS BIIF-8  (PRN 03)", "OBJECT_ID": "2014-068A", "EPOCH": "2025-12-20T10:28:39.196128", "MEAN_MOTION": 2.00565411, "ECCENTRICITY": 0.0060813, "INCLINATION": 56.8634, "RA_OF_ASC_NODE": 37.8483, "ARG_OF_PERICENTER": 69.0316, "MEAN_ANOMALY": 291.6877, "EPHEMERIS_TYPE": 0, "CLASSIFICATION_TYPE": "U", "NORAD_CAT_ID": 40294, "ELEMENT_SET_NO": 999, "REV_AT_EPOCH": 8162, "BSTAR": 0, "MEAN_MOTION_DOT": -5.6e-07, "MEAN_MOTION_DDOT": 0}, "tle": {"line1": "1 40294U 14068A   25354.43656477 -.00000056  00000+0  00000+0 0  9999", "line2": "2 40294  56.8634  37.8483 0060813  69.0316 291.6877  2.00565411 81620"}}, "geometry": {"type": "Point", "coordinates": [-175.45810292136935, 40.04961609504173]}}]}